"Business Name","VBSC","City","State","Business Website","Business Model","CSA","Food-Hub","Cooperative","Online (Delivery or Pickup)","Legal Structure","National","Regional","State","County","Produce","Dairy","Meat","Eggs","Seafood","Value-Added/ Dry goods","Preserves/ Honey","Health/Nutrition","Fresh","Local","Sustainable/Environment","Fair","Community","Humane (Animal)","AHSF","Education (Consumers)","Education (Farmers)","Commerce/Economics (Local Economy)","Affordability","Transparency","Organic","Accessability"
"Moore Farms and Friends",1,"Woodland","AL","https://www.moorefarmsandfriends.com/store/pc/viewContent.asp?idpage=10",".",0,1,0,1,".",0,1,0,0,1,1,1,1,0,1,1,1,1,1,1,0,0,1,1,0,0,0,0,0,1,1
"Manna Market",1,"Birmingham","AL","http://shop.mannamarket.net/",".",1,1,1,0,"cooperative",0,0,1,0,1,1,1,1,1,1,1,1,0,1,1,0,0,0,0,0,1,0,1,0,1,0
"Grow Alabama",1,"Birmingham","AL","http://growalabama.com/",".",1,1,0,0,".",0,0,1,0,1,1,1,1,1,0,0,0,0,0,1,0,0,0,0,0,0,0,0,0,1,0
"Russellville Community Market",1,"Russellville ","AR","http://russellville.locallygrown.net/",".",0,1,0,1,".",0,0,1,0,1,1,1,1,0,1,1,0,0,1,0,0,0,0,0,0,0,0,0,0,0,0
"Farm2Work",1,"Little Rock","AR","http://farm2work.locallygrown.net/",".",0,0,0,1,".",0,0,1,0,1,1,1,1,0,1,1,0,0,1,0,0,0,0,0,0,0,0,0,0,0,0
"Arkansas Delta Seeds of Change, Inc",1,"Forrest City","AR","N/A",".",0,0,1,0,"cooperative",0,0,1,0,1,0,0,0,0,0,0,1,0,0,1,0,1,0,0,0,1,0,0,0,0,1
"Little Rock Local Food Club",1,"Little Rock","AR","http://littlerock.locallygrown.net/",".",0,1,0,0,".",0,0,1,0,1,1,1,1,0,1,1,1,0,1,1,0,1,1,1,0,0,0,0,0,1,1
"Foodshed Farm",1,"Grady","AR","http://www.foodshedfarms.com/",".",1,0,0,0,".",0,0,1,0,1,0,1,0,0,0,0,1,0,1,1,0,0,0,0,0,1,0,0,0,0,0
"YCGrown, the Yavapai County Farmers & Ranchers Cooperative",1,"Chino Valley","AZ","http://www.ycgrown.com/",".",0,1,0,1,"non-profit",0,0,1,0,1,0,0,0,0,0,0,,1,1,1,1,0,0,0,0,0,0,0,0,0,0
"Downtown Phoenix Public Market (Community Food Connections)",1,"Phoenix","AZ","http://phxpublicmarket.com/openair/",".",0,1,0,0,".",0,0,1,0,1,1,1,1,0,1,1,1,1,1,1,0,1,1,1,0,0,0,0,0,0,0
"Chow Locally",1,"Phoenix","AZ","https://www.chowlocally.com/",".",1,0,0,0,".",0,0,0,1,1,0,0,1,0,1,0,0,0,1,1,0,0,0,0,0,0,0,0,0,1,0
"Farm 2 Family Direct",1,"Nevada City","CA","http://www.farm2familydirect.com/",".",0,1,1,1,"cooperative",0,1,0,0,1,1,1,1,0,1,1,0,0,1,1,0,0,0,0,0,0,0,0,0,1,0
"Capay Valley Farm Shop",1,"Esparto","CA","http://capayvalleyfarmshop.com/",,1,1,0,1,".",0,0,1,0,1,0,1,1,0,1,1,0,0,1,0,0,0,0,0,0,0,0,0,0,1,0
"Tahoe Food Hub",1,"Truckee","CA","http://www.tahoefoodhub.org/",".",0,1,0,0,"non-profit",0,0,1,0,1,1,1,1,0,1,1,1,1,1,1,1,1,1,1,0,1,0,0,0,1,1
"Village Market Place",1,"Los Angeles","CA","http://csuinc.org/programs/village-market-place/",".",0,1,0,0,".",0,0,0,1,1,0,0,0,0,0,0,1,1,1,0,0,1,0,0,0,0,0,0,0,1,1
"Mandela Marketplace",1,"Oakland","CA","http://www.mandelamarketplace.org/#!madelafoods/cs4q",".",0,1,0,0,"non-profit",0,0,0,1,1,0,0,0,0,1,0,1,0,1,0,0,1,0,0,0,0,0,0,0,1,1
"Agriculture and Land-Based Training Association (ALBA) Organics",1,"Salinas","CA","http://www.albafarmers.org","distributor; wholesaler; farm-to-business/institution",0,1,0,0,"non-profit",0,0,1,0,1,0,0,0,0,0,0,0,0,1,1,0,0,0,0,0,1,0,0,0,1,0
"Veritable Vegetable",1,"San Francisco","CA","http://www.veritablevegetable.com/",".",0,1,0,0,"b corp",1,0,0,0,1,0,0,0,0,0,0,1,0,0,1,1,1,0,0,0,0,0,0,0,1,0
"Harvest Santa Barbara",1,"Santa Barbara","CA","http://www.harvestsantabarbara.com/",".",0,1,0,0,".",0,0,1,0,1,0,0,0,0,0,0,1,0,1,1,0,0,0,0,0,0,0,0,0,1,0
"Sonoma Organics",1,"Sebastopol","CA","http://www.sonomaorganics.com/",".",0,1,0,0,"s corp",0,0,1,0,1,1,0,0,0,1,0,1,0,1,1,0,0,0,0,0,0,0,0,0,1,0
"Ojai Pixie Growers Association",1,"Ojai","CA","http://www.ojaipixies.com/",".",0,1,0,0,".",0,0,1,0,1,0,0,0,0,0,0,1,1,1,0,0,0,0,0,0,0,0,0,0,1,0
"New Roots Food Hub at the International Rescue Committee (IRC)",1,"San Diego","CA","http://www.rescue.org/us-program/us-san-diego-ca/food-hub",".",0,1,0,0,".",0,0,0,1,1,0,0,0,0,0,0,0,1,1,1,0,0,0,0,0,1,0,0,0,0,0
"f.e.e.d Sonoma",1,"Sebastopol","CA","http://feedsonoma.com/",".",0,1,0,0,".",0,0,1,0,1,0,0,0,0,0,0,1,1,1,1,1,1,0,0,0,0,0,0,0,0,0
"Inland Orange Conservancy (Old Grove Oranges)",1,"Mentone","CA","http://oldgrovefarmshare.com/",".",0,1,0,0,".",0,0,1,0,1,0,0,0,0,0,0,1,1,1,1,1,1,0,0,0,0,0,0,0,0,0
"South Central Farmers Cooperative, LLC",1,"Sun Valley","CA","https://www.southcentralfarmers.com/",".",1,0,0,0,".",0,0,0,1,1,0,0,0,0,0,0,1,1,1,1,0,1,0,0,0,0,0,0,0,1,0
"Phat Beets Produce",1,"Oakland","CA","http://www.phatbeetsproduce.org/",".",1,0,0,0,".",0,0,0,1,1,0,0,0,0,0,0,1,1,1,0,0,1,0,0,0,0,0,0,0,1,0
"Swanton Berry Farm",1,"Davenport","CA","http://www.swantonberryfarm.com/","primary food producers and harvesters",0,0,0,0,".",0,0,1,0,1,0,0,0,0,0,0,0,0,0,0,0,0,0,0,0,1,0,0,0,1,0
"Santa Monica Farmers Markets",1,"Santa Monica ","CA","http://www.smgov.net/portals/farmersmarket/",".",,,,,".",0,0,0,1,1,1,1,1,1,1,1,0,0,0,0,0,1,0,0,1,0,0,0,0,1,0
"Arkansas Valley Organic Growers",1,"Fowler","CO","http://www.headwatersgrowers.coop","CSA; buying club",1,1,1,1,"farmer-owned cooperative",0,0,1,0,1,1,1,1,0,0,0,0,0,1,1,0,0,0,0,0,0,0,0,0,1,0
"Ranch Foods Direct LLC",1,"Colorado Springs","CO","http://ranchfoodsdirect.com/",".",0,1,0,1,"LLC",0,0,0,1,0,1,1,0,1,1,1,0,0,1,1,0,0,1,,0,0,0,0,0,0,0
"LoCo Food Distribution",1,"Fort Collins","CO","http://www.locofooddistribution.com/",".",0,1,0,0,"LLC",0,0,1,0,1,1,1,1,0,1,1,1,0,1,1,1,1,0,1,0,0,0,0,1,1,0
"Homestead Meats",1,"Delta","CO","http://www.homesteadmeats.com/",".",0,0,0,0,".",0,0,0,1,0,0,1,0,0,0,0,0,0,1,1,0,0,1,1,0,0,0,0,0,0,0
"Connecticut Farm Fresh Express, LLC",1,"East Haddam","CT","http://www.ctffe.com/index.htm",".",0,1,0,1,"LLC",0,0,1,0,1,1,1,1,0,1,1,0,0,1,0,0,0,1,0,0,0,0,0,0,1,0
"The Farmer's Cow",1,"Lebanon","CT","http://www.thefarmerscow.com/",".",0,1,0,0,".",0,0,1,0,0,1,0,0,0,1,0,0,1,1,0,0,0,1,1,0,0,0,0,0,0,0
"DC Central Kitchen",1,"Washington","DC","http://www.dccentralkitchen.org/",".",0,1,0,0,".",0,0,0,1,1,0,0,0,0,0,0,1,0,1,0,0,1,0,0,1,0,0,1,0,0,1
"FarmFresh2U",1,"Longwood","FL","http://www.farmfresh2u.us/",".",0,1,0,1,".",1,0,0,0,1,1,1,1,1,1,1,1,0,0,1,0,0,1,0,0,0,0,1,0,1,1
"Red Hill Online Farmers Market",1,"Tallahassee","FL","https://www.rhomarket.com/",".",0,1,0,1,".",0,0,1,0,1,1,1,1,0,1,1,0,0,1,0,0,0,0,0,0,1,1,0,0,0,0
"New North FL Cooperative",1,"Marianna","FL","http://newnorthfloridacoop.com/index_files/nnfc.htm",".",0,0,1,0,"cooperative",0,0,1,0,1,0,0,0,0,0,0,0,1,1,0,1,0,0,0,0,0,0,0,0,0,0
"Suncoast Food Alliance",1,"Tampa Bay","FL","http://suncoastfoodalliance.com/",".",,,,0,"LLC",0,0,1,0,1,1,1,1,0,1,1,1,1,1,1,0,0,1,1,0,0,1,0,0,1,0
"Northeast Georgia Locally Grown",1,"Clarksville","GA","http://northeastgeorgia.locallygrown.net/",".",0,1,0,1,".",0,1,0,0,1,1,1,1,0,1,1,1,1,1,1,0,0,1,1,0,0,0,0,0,1,0
"The Turnip Truck",1,"Atlanta","GA","http://www.turniptruckga.com/",".",0,1,0,1,".",0,1,0,0,1,1,1,1,0,1,1,0,1,1,1,0,0,0,0,0,0,0,0,0,1,0
"Coastal Georgia Small Farmers Cooperative",1,"Glenville","GA","http://www.cgsfc.com/",".",0,0,1,0,"cooperative",0,0,1,0,1,0,0,0,0,0,0,0,1,1,1,0,0,0,0,0,0,0,0,0,0,0
"Global Growers Network",1,"Avondale Estates","GA","http://www.globalgrowers.org/",".",1,1,0,0,".",0,0,1,0,1,1,0,1,0,1,1,0,0,1,1,0,,0,0,0,1,1,0,0,0,0
"Fulton County Cooperative Fresh Mobile Farmers' Market",1,"Atlanta","GA","http://www.blankfoundation.org/sites/default/files/food-oasis/Fulton%20Fresh%20Mobile%20Farmers%20Market%20Resource%20Letter_v030614.pdf",".",0,1,0,0,".",0,0,0,1,1,0,0,0,0,0,0,1,1,0,0,0,0,0,0,0,0,0,0,0,0,1
"Oahu Fresh",1,"Honolulu","HI","http://www.oahufresh.com/",,1,1,0,1,"LLC",0,0,0,1,1,1,1,1,0,1,1,1,1,1,1,0,1,0,0,0,0,0,0,0,1,0
"Adaptations, Inc",1,"Captain Cook","HI","http://www.adaptationsaloha.com","CSA",1,1,0,1,".",0,0,1,0,1,0,0,0,0,1,,0,0,1,1,0,0,0,0,0,0,0,0,0,1,0
"The Food Basket, Inc",1,"Hilo","HI","http://www.hawaiifoodbasket.org/",".",1,0,0,0,".",0,0,1,0,1,0,0,0,0,0,0,1,0,1,0,0,0,0,0,0,0,0,1,0,0,1
"Iowa Food Cooperative",1,"Des Moines","IA","http://iowafood.coop/",".",0,1,1,1,"cooperative",0,0,1,0,1,1,1,1,1,1,1,0,1,1,1,1,0,1,1,0,0,0,0,0,1,0
"Iowa Valley Food Cooperative",1,"Amana","IA","http://iowavalleyfood.com/",".",0,0,1,1,"cooperative",0,0,1,0,1,1,1,1,0,1,1,0,1,1,1,1,1,1,1,0,0,0,0,0,1,0
"Grass Run Farms",1,"Dorchester","IA","http://www.grassrunfarms.com/",".",0,1,0,1,".",0,1,0,0,0,0,1,0,0,0,0,1,0,1,1,0,1,1,1,0,0,0,0,1,0,0
"GROWN Locally",1,"Decorah","IA","http://www.grownlocally.com/",".",0,0,1,0,"cooperative",0,1,0,0,1,0,1,1,0,1,1,0,0,1,1,0,0,1,1,0,0,0,0,0,1,0
"Iowa Food Hub",1,"Decorah","IA","http://www.iowafoodhub.com/",".",0,1,0,0,".",0,0,1,0,1,1,1,1,0,1,1,0,0,1,1,0,1,1,1,0,0,0,0,0,0,0
"Annie's Garden and Greens",1,"FT. Atkinson","IA","http://anniesgardensandgreens.com","CSA; roadside stand",1,0,0,0,,0,0,0,1,1,1,0,1,0,1,0,0,1,1,0,0,1,0,0,0,0,0,0,0,1,0
"Idaho's Bounty Co-op",1,"Garden City","ID","http://idahosbounty.coop","hybrid; farm to consumer (online ordering); farm to business/institution; wholesaler",0,0,1,1,"cooperative",0,0,1,0,1,1,1,1,1,0,0,1,1,1,1,1,1,1,1,0,0,0,0,0,1,0
"Six Rivers Market",1,"Sandpoint","ID","http://www.sixriversmarket.com/",".",0,0,1,0,".",0,0,1,0,1,1,1,1,0,1,1,,,,,,,,,,,,,,,
"Gourmet Gorilla, Inc",1,"Chicago","IL","https://www.gourmetgorilla.com/",".",1,1,0,1,"s corp",0,1,0,0,1,1,1,1,1,1,1,1,1,1,1,1,1,1,1,0,0,1,0,0,1,0
"Irv & Shelly's Fresh Picks",1,"Niles","IL","https://www.freshpicks.com/",".",0,1,0,1,".",0,1,0,0,1,1,1,1,1,1,1,1,1,1,1,0,0,1,1,0,0,0,0,0,1,0
"Angelic Organics Learning Center - Roots and Wings Network",1,"Rockford","IL","http://www.learngrowconnect.org/urban/rockford","education; farm",1,0,0,1,"non-profit",0,1,0,0,1,0,0,0,0,1,1,1,1,1,1,0,1,0,0,1,1,0,0,0,1,0
"Healthy Food Hub",1,"Chicago","IL","http://www.healthyfoodhub.org/",".",1,1,0,0,"non-profit",0,0,1,0,1,0,1,1,0,1,1,1,0,1,1,0,1,1,1,0,0,0,1,0,1,0
"Fresh Moves Mobile Produce Market",1,"Chicago","IL","N/A",".",0,1,0,0,".",0,0,0,1,1,0,0,0,0,0,0,1,1,1,1,0,1,0,0,0,0,0,1,0,1,1
"Chicago Local Foods, LLC dba Local Foods",1,"Chicago","IL","http://localfoods.com/",".",0,1,0,0,"LLC",0,1,0,0,1,1,1,1,0,1,0,0,0,1,1,1,0,0,1,0,0,0,0,1,1,0
"Goodness Greenness",1,"Chicago","IL","http://www.goodnessgreeness.com/eSource/default/Login.aspx?role=customer",".",0,1,0,0,".",0,1,0,0,1,0,0,0,0,0,0,1,1,1,1,0,0,0,0,0,0,0,0,0,1,0
"Stewards of the Land",1,"Fairbury","IL","http://www.thestewardsoftheland.com/",".",0,1,0,0,"LLC",0,0,1,0,1,0,1,1,0,1,0,0,0,0,1,0,1,0,0,0,0,0,0,0,0,0
"Red Meat Market",1,"Chicago","IL","https://www.redmeatmarket.com/",".",0,1,0,0,0,0,0,0,1,0,0,1,0,0,0,0,0,0,1,1,0,0,0,0,0,0,0,0,0,0,0
"Windcrest Dairy Inc",1,"Trenton","IL","http://windcrestdairy.com/about_us.html",".",0,1,0,0,".",0,1,0,0,0,1,0,0,0,0,0,0,0,0,0,0,0,0,0,0,0,0,0,0,0,0
"Good Earth Food Alliance CSA",1,"Farmington","IL","http://www.goodearthfoodalliance.com/",".",1,0,0,0,"LLC",0,0,1,0,1,0,1,1,0,0,0,1,0,1,1,1,0,0,0,0,0,0,0,0,0,0
"Green B.E.A.N Delivery",1,"Indianapolis","IN","http://greenbeandelivery.com/",".",0,1,0,1,".",0,1,0,0,1,1,1,1,1,1,1,1,1,1,1,0,0,1,0,0,0,0,0,0,1,0
"Hoosier Harvest Market",1,"Greenfield","IN","http://hoosierharvestmarket.com/",".",0,1,0,1,"non-profit",0,0,1,0,1,1,1,1,1,1,1,0,0,1,0,0,1,0,0,0,0,0,0,0,0,0
"This Old Farm, Inc",1,"Colfax ","IN","http://www.thisoldfarminc.com/",".",0,1,0,0,".",0,0,1,0,1,1,1,1,0,1,1,0,0,1,1,0,0,1,1,0,0,0,0,,1,1
"Rolling Prairie Farmers Alliance",1,"Lawrence","KS","http://www.rollingprairie.net/",".",0,0,1,0,".",0,0,1,0,1,0,0,0,0,0,0,0,0,1,1,0,0,0,0,0,0,0,0,0,1,0
"Good Natured Family Farms",1,"Bronson","KS","http://www.goodnaturedfamilyfarms.com/",".",1,1,0,0,".",0,1,0,0,1,1,1,1,0,1,1,1,0,1,1,0,0,0,0,0,0,0,0,0,0,0
"Campbell County Beef Association",1,"Cold Spring","KY","http://www.campbellcountybeef.com/",".",0,0,1,0,"cooperative",0,0,1,0,0,0,1,0,0,0,0,0,1,1,0,0,0,1,1,0,0,0,0,0,0,0
"Grow Farms (Horton Fruit Company)",1,"Louisville","KY","http://www.growfarms.com/",".",0,1,0,0,".",0,1,0,0,1,0,0,0,0,0,0,0,1,1,1,0,0,0,0,0,0,0,0,0,0,0
"Holly Grove Market and Farm",1,"New Orleans","LA","https://hollygrovemarket.com/",".",0,1,0,1,"LLC",0,1,0,0,1,1,1,1,0,1,1,0,1,1,1,0,0,0,0,0,0,0,0,0,0,1
"Jack & Jake's, Inc",1,"New Orleans","LA","http://www.jackandjakes.com","hybrid; farm to consumer; farm to business/institution (online ordering)",0,1,0,0,"private",0,1,0,0,1,1,1,0,1,0,0,1,1,1,0,0,0,0,0,0,0,0,1,0,0,1
"Berkshire Organics Delivery",1,"Dalton","MA","http://www.berkshireorganics.com","market; aggregator; home delivery; retail food-hub",0,1,0,1,"family-owned",0,1,0,0,1,1,1,1,0,1,1,0,1,1,1,1,0,1,1,0,0,0,0,0,1,0
"Massachusetts Local Food Cooperative",1,"Sterling","MA","http://www.masslocalfood.org/",".",0,1,0,1,"c-corp",0,0,1,0,1,1,1,1,0,1,1,0,0,1,1,0,0,1,1,0,0,0,0,0,1,0
"Boston Organics",1,"Charlestown","MA","http://www.bostonorganics.com","aggregator; box scheme; home and office delivery",0,1,0,1,"B-corp",0,1,0,0,1,1,0,1,0,1,1,0,0,1,1,1,0,0,0,0,0,0,0,0,1,0
"Common Wealth CSA",1,"Greenfield","MA","http://justroots.org/farm/common-wealth-csa/",".",1,0,1,0,"non-profit",0,0,0,1,1,0,1,0,0,0,0,0,0,1,1,0,1,0,0,0,1,0,0,0,0,0
"OR FoodEx",1,"Lexington","MA","http://orfoodex.com/",".",0,1,0,0,"LLC",0,0,1,0,1,1,1,0,1,1,0,0,1,1,1,1,0,1,1,0,0,1,1,1,1,1
"South Shore Organics",1,"Duxbury","MA","http://southshoreorganics.com/",".",0,1,0,0,".",0,0,1,0,1,1,0,1,0,1,1,0,1,1,1,0,1,0,0,0,0,0,0,0,1,0
"Farm Direct Coop",1,"Marblehead","MA","http://www.farmdirectcoop.org/",".",0,1,0,0,"cooperative",0,1,0,0,1,1,0,1,0,1,0,0,0,1,1,0,1,0,0,0,0,0,0,0,1,0
"Red Tomato",1,"Canton","MA","http://www.redtomato.org/","multi-farm direct-to-wholesale food business chains",0,1,0,0,"non-profit",0,1,0,0,1,0,0,0,0,0,0,1,1,1,1,1,0,0,0,0,0,0,0,0,1,0
"Western MA Food Processing Center",1,"Greenfield","MA","http://www.fccdc.org/about-the-center",".",0,1,0,0,".",0,0,1,0,0,0,0,0,0,1,0,0,0,1,1,0,0,0,0,0,0,1,0,0,0,0
"Northeast Family Farms, LLC",1,"Woburn","MA","http://www.northeastfamilyfarms.com/",".",0,1,0,0,"LLC",0,1,0,0,0,0,1,0,0,0,0,0,0,1,1,0,0,1,1,0,0,0,0,0,0,0
"Azuluna",1,"North Grafton","MA","http://azulunabrands.com/Contacts/Contacts.html","producer program; distributor",0,1,0,0,"LLC",0,1,0,0,0,0,1,1,0,0,0,0,0,1,0,0,0,1,1,0,0,0,0,0,0,0
"Sustainable Nantucket's Farmers & Artisans Market",1,"Nantucket","MA","http://www.sustainablenantucket.org/",".",0,0,0,0,".",0,0,1,0,1,0,0,0,0,0,0,0,0,1,1,0,0,0,0,0,1,1,1,0,0,1
"Friends and Farms ",1,"Columbia","MD","https://www.friendsandfarms.com/",".",0,1,1,1,,0,1,0,0,1,1,1,1,1,1,1,0,1,1,1,1,0,0,1,0,0,0,0,0,0,0
"Garrett Growers Cooperative, LLC",1,"Oakland","MD","http://www.garrettgrowers.com/",".",1,0,1,1,"LLC",0,0,1,0,1,0,0,0,0,0,0,1,1,1,0,0,0,0,0,0,0,0,0,0,0,0
"Hometown Harvest",1,"Frederick","MD","http://www.hometownharvest.com/home.php",".",0,1,0,1,"LLC",0,1,0,0,1,1,1,1,1,1,1,1,0,1,1,0,0,1,1,0,0,0,0,0,1,0
"Washington's Green Grocer",1,"Capital Heights","MD","https://www.washingtonsgreengrocer.com/",".",0,1,0,1,".",0,1,0,0,1,1,1,1,0,1,0,0,1,0,0,0,0,0,0,0,0,0,0,0,1,0
"Crown O' Maine Organic Cooperative",1,"North Vassalboro","ME","http://www.crownofmainecoop.com/",".",0,1,1,1,"cooperative",0,0,1,0,1,0,0,0,1,0,0,0,0,1,0,0,1,0,0,0,0,1,1,0,1,1
"World PEAS Marketing Cooperative",1,"Lowell","ME","http://nesfp.org/worldpeas",".",1,1,0,0,".",0,0,1,0,1,0,0,0,0,0,0,1,0,1,1,0,1,0,0,0,0,1,0,0,1,1
"Fresh Start Farms CSA",1,"Portland","ME","https://www.cultivatingcommunity.org/buy-our-produce/fresh-start-farms-csa/",".",1,1,0,0,".",0,0,1,0,1,0,0,0,0,0,0,1,1,1,1,0,0,0,0,0,0,0,0,0,0,0
"Farm Fresh Connection LLC",1,"Freeport","ME","http://www.farmfreshconnection.org/farm_fresh_CONNECTION/Welcome.html",".",0,1,0,0,"LLC",0,1,0,0,1,0,0,0,0,0,0,1,1,0,0,0,0,0,0,0,0,0,1,0,0,0
"Northern Girl, LLC",1,"Limestone","ME","http://northerngirlmaine.com/",".",0,1,0,0,"LLC",0,1,0,0,1,1,0,1,0,1,1,0,0,1,0,0,0,0,0,0,0,1,0,0,0,0
"West Michigan Cooperative",1,"Grand Rapids","MI","http://www.westmichigancoop.com/",".",0,0,1,1,".",0,0,1,0,1,1,1,1,1,1,1,0,0,1,1,0,0,0,0,0,0,1,0,0,0,1
"Harvest Michigan",1,"Clarkston","MI","http://www.harvestmichigan.com/",".",0,1,0,1,"c-corp",0,0,1,0,1,1,1,1,0,1,1,0,0,1,1,0,0,1,1,1,0,0,0,0,0,0
"Cherry Capital Foods",1,"Traverse City","MI","http://cherrycapitalfoods.com","distributor",0,1,0,0,"LLC",0,0,1,0,1,1,1,1,0,1,0,0,0,1,1,1,1,0,0,0,0,1,0,0,1,0
"Walsma and Lyons",1,"Byron Center","MI","http://walsmalyons.com/",".",0,1,0,0,".",1,0,0,0,1,0,0,0,0,0,0,0,0,0,0,0,0,0,0,0,0,0,0,0,0,0
"Eastern Market",1,"Detroit","MI","http://www.easternmarket.com/",".",0,1,0,0,".",0,1,0,0,1,1,1,1,0,1,1,0,0,1,0,0,1,0,0,0,0,0,,0,0,0
"Co-op Partners Warehouse",1,"St. Paul","MN","http://www.cooppartners.coop/","multi-farm direct-to-consumer business chains",0,1,1,0,".",0,1,0,0,1,1,0,0,0,0,0,0,0,1,0,0,0,0,0,0,0,0,0,0,1,0
"Sprout MN",1,"Brainerd","MN","http://sproutmn.com/",".",1,1,0,0,".",0,0,1,0,1,0,0,1,0,0,0,1,1,1,1,0,0,0,0,0,1,0,0,0,1,0
"Twin Cities Local Food",1,"Webster","MN","http://www.localfoodmarketplace.com/twincities/",".",0,1,0,0,".",0,0,1,0,1,1,1,1,0,1,1,1,0,1,1,0,1,0,0,0,0,0,0,0,0,1
"Big River Farms (Minnesota Food Association)",1,"Marine on St. Croix","MN","http://www.mnfoodassociation.org/big-river-farms-csa","multiple farmer CSA",1,0,0,0,"non-profit",0,0,1,0,1,0,0,0,0,0,,0,0,1,1,0,0,0,0,0,1,0,1,0,1,1
"Hmong American Farmers Association",1,"St. Paul","MN","http://www.hmongfarmers.com/",".",0,0,0,0,".",0,0,1,0,1,0,0,0,0,0,0,0,0,1,1,1,0,0,0,0,1,0,0,0,0,0
"Thousand Hills Cattle Company",1,"Cannon Falls","MN","http://www.thousandhillscattleco.com/",".",0,0,0,0,".",0,0,1,0,0,0,1,0,0,0,0,1,0,0,1,0,0,1,1,0,0,0,0,0,0,0
"Lorentz Meats",1,"Cannon Falls","MN","http://www.lorentzmeats.com/","value-added food production",,,,,".",0,1,0,0,0,0,1,0,0,0,0,0,0,0,1,0,0,1,1,0,0,0,0,0,1,0
"Farmer Girl Grassfed & Pasture Raised Meats",1,"Warrenton","MO","http://farmergirlmeats.com/",".",0,1,0,1,".",0,1,0,0,0,0,1,0,0,0,0,1,1,0,1,0,0,1,1,0,0,0,0,0,0,0
"Fields Foods",1,"St. Louis","MO","http://fieldsfoods.com/about-us#.",".",0,1,0,0,".",0,0,1,0,1,1,1,1,1,1,1,1,1,1,1,0,1,0,0,0,0,0,1,0,0,0
"Fresh Food Express, LLC",1,"Kansas City","MO","http://www.freshfoodexpress.com/",".",0,1,0,0,"LLC",0,1,0,0,1,1,1,1,0,1,0,1,0,1,1,0,0,0,0,0,0,1,0,0,0,0
"Root Cellar",1,"Columbia","MO","http://www.rootcellarmo.com/",".",0,1,0,0,".",0,0,1,0,1,1,1,1,0,0,0,,1,1,1,0,1,0,0,0,0,0,0,0,0,0
"Webb City Farmers Market",1,"Webb City","MO","http://www.webbcityfarmersmarket.com/",".",0,1,0,0,".",0,0,1,0,1,1,1,1,0,1,1,0,1,1,0,0,1,0,0,0,0,0,0,0,0,0
"Eat Here St Louis LLC",1,"St. Louis","MO","http://www.eatherestl.com/",".",0,1,0,0,"LLC",0,1,0,0,1,1,1,1,0,1,0,0,1,1,0,0,0,0,0,0,0,0,0,0,0,0
"Beans and Greens Mobile Market",1,"Kansas City","MO","http://beansandgreens.org","SNAP match program at farmers markets",0,0,0,0,"non-profit",0,1,0,0,1,0,0,0,0,0,0,1,0,1,0,0,1,0,0,0,0,1,1,0,0,1
"Indian Springs Farmer Association",1,"Petal","MS","http://www.federationsoutherncoop.com/coopmarket/indianspr.htm","food product aggregation and distribution",0,0,1,0,"cooperative",0,1,0,0,1,0,0,0,0,0,0,0,0,0,0,1,0,0,0,0,0,0,0,0,0,0
"Western Montana Growers Cooperative",1,"Arlee","MT","http://wmgcoop.com/",".",1,0,1,0,".",0,0,1,0,1,1,1,1,0,1,1,0,1,1,1,0,1,0,0,0,0,0,0,0,0,0
"Quality Foods Distributing",1,"Bozeman","MT","http://www.qfdistributing.com/",".",0,1,0,0,".",0,1,0,0,1,1,1,1,1,1,1,0,0,1,1,0,0,0,0,0,0,0,0,0,1,0
"Polk Fresh Foods, Inc",1,"Mill Spring","NC","https://www.polkfreshfoods.com/",".",1,1,0,1,".",0,0,1,0,1,1,1,1,0,1,1,0,1,1,0,0,0,0,0,0,0,0,0,0,0,0
"Down East Connect",1,"Whiteville","NC","http://www.farmersfreshmarket.org/downeast/",".",1,1,0,1,".",0,0,1,0,1,1,1,1,0,1,1,0,0,1,0,0,0,0,0,0,0,0,0,0,0,0
"Feast Down East",1,"Burgaw","NC","http://www.feastdowneast.org/",".",0,1,0,1,".",0,0,1,0,1,0,0,0,1,0,0,0,1,1,0,0,1,0,0,0,0,1,0,0,0,1
"GO Local NC Farms, LLC",1,"Concord","NC","https://www.golocalncfarms.com/main/default.aspx",".",0,1,0,1,"LLC",0,0,1,0,1,1,1,1,0,1,1,0,0,1,1,0,0,0,1,0,0,0,0,0,1,0
"Community Nutrition Partnership",1,"Durham","NC","http://www.cnpnc.org/",".",0,0,0,1,"non-profit",0,0,1,0,1,0,0,0,0,1,1,1,1,1,0,0,1,0,0,0,0,0,1,0,0,1
"Sandhills Farm to Table Cooperative",1,"Whispering Pines","NC","http://www.sandhillsfarm2table.com/home.php","aggregator; subscription program; multi-farm CSA",0,0,1,0,"multi-stakeholder cooperative (producers, consumers, employees)",0,0,1,0,1,0,0,0,0,0,0,0,1,1,1,1,1,0,0,0,0,0,1,0,0,1
"New River Organic Growers",1,"West Jefferson","NC","http://www.newrivergrowers.com/",".",0,0,1,0,"cooperative",0,0,1,0,1,1,1,0,0,0,0,0,1,1,1,0,0,1,1,0,0,0,0,0,1,0
"Working Landscapes",1,"Warrenton","NC","http://workinglandscapesnc.org/",".",0,1,0,0,".",0,0,0,1,1,0,0,0,0,0,0,1,0,1,1,0,1,0,0,1,0,1,0,0,0,1
"Farmer Foodshare Pennies on the Pound (POP) Market",1,"Chapel Hill","NC","http://www.farmerfoodshare.org/",".",0,1,0,0,".",0,0,1,0,1,0,0,0,0,0,0,1,1,1,1,0,1,0,0,0,1,0,0,0,0,1
"Firsthand Foods, LLC",1,"Durham","NC","http://firsthandfoods.com","hybrid; farm to consumer (box delivery); farm to business/institution",0,1,0,0,"LLC",0,0,1,0,0,0,1,0,0,0,0,0,0,1,0,0,0,1,1,0,0,0,0,0,0,0
"The Produce Box",1,"Raleigh","NC","http://www.theproducebox.com/",".",0,1,0,0,".",0,0,1,0,1,1,1,0,1,1,0,0,1,1,1,0,0,0,0,0,0,0,0,0,0,0
"Eastern Carolina Organics",1,"Pittsboro","NC","http://www.easterncarolinaorganics.com/",".",0,1,0,0,"LLC",,,,,1,0,0,0,0,1,1,,,1,1,,,,,,,,,,1,
"High Country CSA",1,"Banner Elk","NC","http://highcountrycsa.wix.com/2015",".",1,0,0,0,".",0,0,1,0,1,0,0,1,0,1,1,0,1,1,1,0,0,0,0,0,0,0,0,0,1,0
"Walking Fish",1,"Beaufort","NC","http://www.walking-fish.org/",".",0,0,0,0,".",0,0,1,0,0,0,0,0,1,0,0,0,0,1,1,0,1,0,0,0,0,1,0,0,0,0
"Nebraska Food Cooperative",1,"Lincoln","NE","https://www.nebraskafood.org/",".",0,1,1,1,"cooperative",0,0,1,0,1,1,1,1,1,1,1,1,0,1,0,0,0,0,0,0,0,0,0,0,0,1
"Tomato Tomato",1,"Omaha","NE","http://tomatotomato.org/",".",1,0,0,0,,0,0,1,0,1,1,1,1,0,1,0,0,0,1,0,0,0,0,0,0,0,0,0,0,1,0
"North Country Farmers Coop",1,"Colebrook","NH","http://ncfcoop.com/",".",0,0,1,1,"cooperative",0,1,0,0,1,1,1,1,0,0,1,0,0,1,1,0,0,1,1,0,0,1,0,0,0,0
"NH Community Seafood",1,".","NH","http://www.nhcommunityseafood.com/",".",0,0,1,0,".",0,0,0,1,0,0,0,0,1,0,0,0,0,1,0,1,0,0,0,0,0,0,0,1,0,0
"Tri-County Cooperative",1,"East Windsor ","NJ","http://www.tricountycoop.net/",".",0,0,1,0,".",0,1,0,0,1,0,0,0,0,0,,0,1,0,0,0,0,0,0,0,0,0,0,0,0,1
"Beneficial Farm CSA",1,"Santa Fe","NM","http://www.beneficialfarm.com","CSA; aggregator",1,1,1,1,"private",0,0,1,0,1,1,1,1,0,0,0,0,1,1,1,0,0,0,0,0,0,0,0,0,1,0
"La Montanita Co-op Distribution Center",1,"Albuquerque","NM","http://lamontanita.coop/co-op-distribution-center-2/","distributor",0,1,1,0,"cooperative",0,0,1,0,1,1,1,1,0,1,1,0,1,1,1,1,1,1,1,0,0,0,0,0,1,0
"Agri-Cultura Network",1,"Albuquerque","NM","https://afsc.org/program/new-mexico-agri-cultura-network","farmer collective, aggregation, farm-to-school",1,0,1,0,"farmer collective",0,0,0,1,1,0,0,0,0,0,0,1,1,1,1,0,1,0,0,1,1,0,0,0,1,1
"Santa Fe Farmers Market Institute",1,"Santa Fe","NM","http://farmersmarketinstitute.org/",".",0,1,0,0,".",0,0,1,0,1,0,0,0,0,0,0,1,0,1,1,0,1,0,0,0,0,0,0,0,0,1
"Skaarsgard Farms",1,"Albuquerque","NM","http://skarsgardfarms.deliverybizpro.com/home.php",".",0,1,0,0,".",0,0,1,0,1,0,1,0,0,1,0,0,1,1,1,1,0,0,0,1,0,1,0,0,1,0
"Rio Arriba Farms CSA",1,"Abiquiu","NM","http://www.rioarribafarms.com/",".",1,0,0,0,".",0,0,1,0,1,0,0,0,0,0,0,0,0,1,0,1,1,0,0,0,0,0,0,0,0,1
"Adirondack Grazers Cooperative",1,"Greenwich","NY","http://adkgrazers.com","grazer cooperative; online ordering; supplier to select butchers",0,0,1,1,"cooperative",0,1,0,0,0,0,1,0,0,0,0,0,0,0,1,0,0,0,1,0,1,0,0,0,0,0
"Corbin Hill Food Project",1,"New York","NY","http://corbinhillfoodproject.org/",".",1,1,0,1,"non-profit",0,0,1,0,1,1,1,1,0,1,1,1,0,1,0,0,1,0,0,0,0,1,0,0,0,1
"CHQ Local Food Inc",1,"Mayville","NY","http://chqlocalfood.com/home/",".",0,1,0,1,".",0,0,1,0,1,1,1,1,0,1,1,0,0,1,1,1,0,0,0,0,0,0,0,0,1,1
"FarmieMarket Online",1,"Albany","NY","https://farmiemarket.com/",".",0,1,0,1,"LLC",0,0,1,0,1,0,1,1,0,1,1,0,0,1,1,0,0,1,1,0,0,1,0,0,1,0
"Good Food Collective-Head Water Foods, Inc",1,"Rochester","NY","http://thegoodfoodcollective.com/",".",0,1,0,1,".",0,0,1,0,1,1,1,0,0,1,0,0,1,1,1,0,1,1,1,0,0,0,0,0,1,0
"Regional Access, Inc",1,"Ithaca","NY","http://regionalaccess.net/",".",0,1,0,1,".",0,1,0,0,1,1,1,1,1,1,1,0,0,1,0,0,0,0,0,0,0,0,0,1,0,0
"Farmshed Harvest",1,"New Woodstock","NY","http://www.farmshedcny.com/harvest/",".",0,1,0,1,".",0,0,1,0,,,,,,,,,,1,1,,,,,,,,,,,
"Hudson Valley Bounty",1,"Hudson","NY","http://www.hudsonvalleybounty.com","farm-to-chef",0,0,0,1,".",0,0,1,0,1,0,0,0,0,0,0,1,1,1,1,0,1,0,0,0,0,1,0,0,0,0
"North Country Grown Cooperative",1,"Massena","NY","http://northcountrygrown.com/who-we-are/current-board-of-directors/",".",0,0,1,0,"cooperative",0,0,1,0,1,0,1,0,0,0,1,1,1,1,1,0,0,0,0,0,0,1,0,0,0,0
"Eden Valley Growers",1,"Eden","NY","http://edenvalleygrowers.com/",".",0,0,1,0,"cooperative",0,1,0,0,1,0,0,0,0,0,0,0,1,1,0,0,0,0,0,0,0,0,0,0,0,0
"Grange Co-packer, LLC",1,"Essex","NY","http://www.grangecopacker.com/",".",0,0,1,0,".",0,1,0,0,0,0,0,0,0,1,0,1,0,1,0,0,0,0,0,0,0,0,0,0,0,0
"Greenmarket Co",1,"New York","NY","http://www.greenmarketco.org/","food retailers",0,1,0,0,"non-profit",0,0,1,0,1,0,0,0,0,1,1,0,0,1,1,0,0,0,0,0,0,0,0,0,1,1
"Finger Lakes Fresh Food Hub",1,"Groton","NY","http://fingerlakesfresh.com/FLF/",".",0,1,0,0,".",0,0,1,0,1,0,0,0,0,1,0,1,0,1,1,1,1,0,0,0,0,0,1,1,0,1
"Growing Green Mobile Market",1,"Buffalo ","NY","http://mass-ave.org/programs/mobile-market/",".",0,1,0,0,".",0,0,1,0,1,0,0,1,0,0,0,1,1,1,0,0,1,0,0,0,0,0,1,0,0,1
"Foodlink",1,"Rochester","NY","http://foodlinkny.org/",".",0,1,0,0,0,0,1,0,0,1,1,0,1,0,0,0,1,0,0,0,0,1,0,0,0,0,0,1,0,0,1
"Small World Food",1,"Rochester","NY","http://www.smallworldfood.com/",".",0,1,0,0,".",0,0,1,0,0,0,0,0,0,1,0,1,1,1,1,1,1,0,0,1,0,0,0,0,1,0
"Lucky Dog Local Food Hub",1,"Hamden","NY","http://www.luckydogorganic.com/#!hub/c1prx",".",0,1,0,0,".",0,1,0,0,1,1,1,1,0,1,0,0,1,1,1,0,0,0,0,0,0,0,0,0,1,0
"Northeast Livestock Processing Service Company, LLC",1,"Sprakers","NY","http://nelpsc.com/",".",0,1,0,0,".",0,0,1,0,0,0,1,0,0,0,0,0,0,1,0,0,0,1,1,0,0,0,0,0,0,0
"Field Goods",1,"Athens","NY","http://www.field-goods.com/",".",0,1,0,0,"LLC",0,0,1,0,1,0,0,0,0,0,0,1,1,1,0,0,0,0,0,0,0,0,0,0,0,0
"Farm to Table Co-packers",1,"Kingston","NY","http://farm2tablecopackers.com/",".",0,1,0,0,".",0,0,1,0,1,0,0,0,0,0,0,0,1,1,0,0,0,0,0,0,0,0,0,0,0,0
"Winter Sun Farms",1,"New Paltz","NY","http://www.wintersunfarms.com/",".",1,0,0,0,".",0,1,0,0,1,0,0,0,0,0,0,0,1,1,0,0,0,0,0,0,0,0,0,0,0,0
"Lake to River Cooperative",1,"Youngstown","OH","https://www.localfoodmarketplace.com/laketoriver/",".",0,1,1,1,".",0,0,1,0,1,1,1,1,0,1,0,1,0,1,1,0,0,0,0,0,0,0,0,0,0,0
"Fair Ridge Farms",1,"Hillsboro","OH","http://fairridgefarms.com/",".",1,1,0,0,".",0,0,1,0,1,0,0,0,0,0,0,1,1,1,1,0,0,0,0,0,0,0,0,1,1,0
"Shagbark Seed and Mill Company",1,"Athens","OH","http://www.shagbarkmill.com/",".",0,1,0,0,"LLC",0,1,0,0,0,0,0,0,0,1,0,1,0,1,1,0,0,0,0,0,0,0,0,0,1,1
"New Agrarian Center",1,"Oberlin","OH","http://www.cityfresh.org/",".",0,1,0,0,".",0,0,1,0,1,0,0,0,0,1,0,0,1,1,1,0,0,0,0,0,1,0,0,0,0,1
"Chesterhill Produce Auction",1,"Chesterhill","OH","http://www.ohiofoodshed.org/chesterhill/","auction",0,1,0,0,".",0,1,0,0,1,0,0,0,0,0,0,0,0,1,0,0,1,0,0,0,0,1,0,0,0,0
"Miami Valley Farm to Chef",1,"Dayton","OH","http://www.mvfarmtochef.com/",".",0,1,0,0,".",0,1,0,0,1,0,0,0,0,0,0,0,1,1,0,0,0,0,0,0,0,1,0,0,0,0
"Grow Youngstown",1,"Youngstown","OH","http://growyoungstown.org/",".",1,0,0,0,"non-profit",0,0,1,0,1,0,0,0,0,0,0,1,0,1,1,1,1,0,0,0,0,1,1,0,0,1
"Oklahoma Food Cooperative",1,"Oklahoma City","OK","http://www.oklahomafood.coop/",".",0,0,1,0,"cooperative",0,0,1,0,1,1,1,1,0,1,1,0,0,1,1,0,0,1,1,0,0,0,0,1,1,0
"Urban Agrarian",1,"Oklahoma City","OK","http://www.urbanagrarian.com/",".",0,1,0,0,".",0,0,1,0,1,1,1,1,0,1,0,0,1,1,1,0,0,0,0,0,0,0,0,0,0,0
"Adelante Mujeres Distributor",1,"Forest Grove","OR","http://www.adelantemujeres.org/agriculture/","CSA, wholesale distributor",1,1,0,1,"non-profit",0,0,0,1,1,0,1,1,0,1,1,1,0,0,0,0,1,0,0,1,1,0,0,0,0,0
"Eat Oregon First",1,"Hillsboro","OR","http://www.eatoregonfirst.com/",".",0,0,0,1,".",0,0,1,0,0,0,1,1,1,1,0,0,0,1,1,0,0,1,1,0,0,0,0,0,0,0
"Country Natural Beef",1,"Burns","OR","http://www.countrynaturalbeef.com/","multi-farm direct-to-wholesale food business chains",0,1,1,0,"cooperative",1,0,0,0,0,0,1,0,0,0,0,0,0,0,1,0,0,1,1,0,0,0,0,0,0,0
"Lane Local Foods",1,"Springfield","OR","http://www.lanefood.org/home.php",".",1,1,0,0,".",0,0,1,0,1,1,1,1,0,1,0,1,1,1,1,1,1,0,0,0,0,0,0,0,0,1
"Gorge Grown Food Network",1,"Hood River","OR","http://www.gorgegrown.com/",".",1,1,0,0,"non-profit",0,1,0,0,1,1,1,1,1,1,1,1,1,1,1,0,1,1,1,0,0,0,0,0,1,0
"Grow Portland (Portland Growers Alliance)",1,"Portland","OR","http://www.growportland.org/growers-alliance/",".",0,1,0,0,".",0,0,0,1,1,0,0,0,0,0,0,0,1,1,1,0,0,0,0,1,0,0,1,0,0,1
"Central Oregon Locavore",1,"Bend","OR","http://www.centraloregonlocavore.org/",".",0,1,0,0,"non-profit",0,0,1,0,1,1,1,1,1,1,1,1,0,1,1,0,1,0,0,1,1,1,0,0,1,0
"Organic Produce Warehouse",1,"Ashland","OR","http://opwfresh.com/",".",0,1,0,0,".",0,0,1,0,1,0,0,0,0,1,0,0,0,1,1,0,0,0,0,0,0,1,0,0,1,0
"Organically Grown Company",1,"Eugene","OR","http://www.organicgrown.com/",".",0,1,0,0,"s corp",0,1,0,0,1,0,0,0,0,0,0,1,0,1,1,0,1,0,0,0,0,0,0,0,1,0
"Hood River Organic, Inc",1,"Hood River","OR","http://hoodriverorganic.com/",".",1,0,0,0,".",0,1,0,0,,0,0,0,0,0,0,0,1,1,1,0,0,0,0,0,0,0,0,0,1,0
"Penn's Corner Farm Alliance",1,"Pittsburgh","PA","http://www.pennscorner.com/",".",1,0,1,1,"cooperative",0,0,1,0,1,1,1,1,0,1,1,0,0,1,1,0,0,0,0,0,0,0,0,0,1,0
"Philly CowShare",1,"Philadelphia","PA","https://www.phillycowshare.com/",".",0,1,0,1,"LLC",0,1,0,0,0,0,1,0,0,0,0,1,0,1,1,1,0,1,1,0,0,0,0,0,0,0
"Clarion River Organics",1,"Sligo","PA","http://www.clarionriverorganics.com/",".",1,1,1,0,".",0,0,1,0,1,0,1,0,0,1,1,1,0,1,1,0,1,0,0,0,0,0,0,0,1,0
"Lancaster Farm Fresh Cooperative",1,"Leola","PA","http://www.lancasterfarmfresh.com/",".",1,0,1,0,".",0,0,1,0,1,1,1,0,0,1,1,1,0,1,1,0,0,1,1,0,0,0,0,0,1,0
"Northwest Pennsylvania Growers Cooperative, Inc",1,"Mercer","PA","http://www.nwpagrowers.com/",".",1,0,1,0,"cooperative",0,0,1,0,1,1,1,1,0,1,1,1,1,1,0,0,0,1,1,0,0,0,0,0,1,0
"Tuscarora Organic Growers Cooperative",1,"Hustontown","PA","http://www.tog.coop","aggregator; wholesale distributor; farm-to-business",0,0,1,0,"cooperative",0,0,1,0,1,0,0,1,0,0,0,0,0,1,1,0,0,0,0,0,0,0,0,0,1,0
"Common Market Philadelphia",1,"Philadelphia","PA","http://commonmarketphila.org","distributor; farm-to-business/institution",1,1,0,0,"non-profit",0,1,0,0,1,1,1,1,0,1,1,0,0,1,1,0,1,0,0,0,0,1,0,0,0,1
"GroundWork Farms",1,"Millheim","PA","http://www.groundworkfarms.com/",".",1,1,0,0,".",0,0,1,0,1,1,0,1,0,1,0,1,1,1,1,0,0,1,0,0,0,0,0,0,1,0
"Greensgrow Farm",1,"Philadelphia","PA","http://www.greensgrow.org/",".",1,1,0,0,".",0,0,1,0,1,0,0,0,0,0,0,0,1,1,1,0,0,0,0,0,0,0,0,0,1,0
"Lackawaxen Farm Company",1,"Honesdale","PA","http://www.lfcfresh.com/",".",1,1,0,0,".",0,0,1,0,1,0,1,1,0,0,0,0,0,1,1,0,0,1,1,0,0,0,0,0,0,0
"Fair Food Philly",1,"Philadelphia","PA","http://www.fairfoodphilly.org/",".",0,1,0,0,".",0,1,0,0,1,1,1,1,0,0,0,1,1,1,0,1,0,0,0,0,0,0,0,0,0,0
"Farm Fresh Rhode Island - Market Mobile",1,"Pawtucket","RI","http://www.farmfresh.org/hub/","hybrid; Farm to consumer (Veggie Box); Farm to business/institution (Market Mobile)",0,1,0,1,"non-profit",0,1,0,0,1,1,1,1,1,1,1,1,1,1,1,1,1,1,1,0,0,1,0,0,0,1
"Little City Growers",1,"Providence","RI","http://www.littlecitygrowers.org/about.html",".",0,0,1,0,"cooperative",0,0,1,0,1,0,0,0,0,0,0,0,0,1,1,0,0,0,0,0,0,0,0,0,0,0
"GrowFood Carolina",1,"Charleston","SC","http://growfoodcarolina.com/",".",0,1,0,0,"non-profit",0,0,1,0,1,0,0,0,0,0,0,0,0,1,1,1,0,0,0,0,0,0,0,1,0,1
"Cumberland Farmer's Market",1,"Sewanee","TN","http://sewanee.locallygrown.net/",".",0,1,0,0,".",0,0,1,0,1,1,1,1,0,1,0,0,0,1,1,1,1,0,0,0,0,1,0,0,0,0
"Good Food for Good People",1,"Nashville","TN","http://goodfoodforgoodpeople.org/",".",0,1,0,0,".",0,0,0,1,1,1,1,1,0,0,0,1,1,1,1,0,1,0,0,0,0,0,0,0,0,0
"Cross Timbers Food Cooperative",1,"Denton","TX","http://www.crosstimberscoop.org/",".",0,0,1,1,"cooperative",0,0,1,0,1,0,1,1,0,0,1,1,0,1,1,0,0,1,1,0,0,0,0,0,1,0
"Greenling",1,"Austin","TX","http://www.greenling.com/",".",0,1,0,1,".",0,0,1,0,1,1,1,1,0,1,1,1,0,1,1,0,0,0,0,0,0,0,0,0,1,0
"Bountiful Sprout",1,"Wimberley","TX","http://localfoodmarketplace.com/bountifulsprout/","aggregator; online ordering",0,1,0,1,"LLC",0,0,1,0,1,1,1,1,0,1,0,0,0,1,0,1,1,0,0,0,0,0,0,0,0,0
"CitySprout",1,"Austin","TX","http://www.citysprout.com/",".",1,0,0,0,".",0,0,1,0,1,1,1,1,0,0,0,1,1,1,1,0,1,0,0,1,1,0,0,0,1,1
"Farm to Table Texas",1,"Austin","TX","http://www.farmtotabletx.com/",".",,1,,,"LLC",0,0,1,0,1,1,0,1,0,0,0,1,1,1,1,0,0,0,0,1,1,1,0,0,0,0
"Local Roots Food Co-op/Lulus Local Food",1,"Goochland","VA","https://localroots.luluslocalfood.com","online marketplace",0,0,1,1,"cooperative",0,0,1,0,1,1,1,0,0,1,1,0,0,1,0,0,0,0,0,0,0,0,0,0,0,0
"Relay Foods",1,"Charlottesville","VA","https://www.relayfoods.com/welcome",".",0,1,0,1,".",0,1,0,0,1,1,1,1,1,1,1,1,1,1,1,0,1,1,1,0,0,1,0,0,1,0
"Off the Vine Market Inc",1,"Williamsburg","VA","http://www.offthevinemarket.com/store/pc/home.asp",".",0,1,0,1,"LLC",0,1,0,0,1,1,1,1,1,1,1,0,0,1,1,1,0,1,1,0,0,0,0,0,1,0
"Coastal Farms, Inc",1,"Windsor","VA","http://www.cooppartners.coop/",".",0,1,0,1,"LLC",0,1,0,0,1,1,1,1,0,1,1,0,0,1,1,0,0,1,1,0,0,0,0,0,1,0
"Fall Line Farms/Lulus Local Food",1,"Richmond","VA","https://falllinefarms.luluslocalfood.com","online marketplace",0,1,0,1,,0,1,0,0,1,1,1,1,0,1,0,1,1,1,1,0,1,1,1,0,0,0,0,1,0,0
"Virginia Natural Fish Company",1,"Farmville","VA","http://aquafarmers.com/",".",0,0,0,1,"LLC",0,0,1,0,0,0,0,0,1,0,0,0,1,1,1,0,0,0,1,0,0,0,0,0,0,0
"Arcadia Center for Sustainable Food & Agriculture",1,"Alexandria","VA","http://arcadiafood.org","farm; mobile market; food hub; farm-to-school; veteran farmer program",0,1,0,0,"non-profit",0,1,0,0,1,0,0,0,0,0,0,1,1,1,1,1,1,0,0,1,1,0,1,0,0,1
"The Farm Table",1,"Glen Allen","VA","http://www.thefarmtable.org/",".",0,1,0,0,".",0,0,1,0,1,0,0,0,0,0,0,1,1,1,1,0,1,0,0,0,0,0,0,0,0,1
"Horse and Buggy Produce",1,"Charlottesville","VA","http://www.horseandbuggyproduce.com/",".",0,1,0,0,".",0,0,1,0,1,0,1,1,0,1,0,0,1,0,1,0,1,0,0,0,0,0,0,0,0,1
"Appalachian Harvest Network",1,"Abingdon","VA","http://asdevelop.org/","food product aggregation and distribution",0,1,0,0,".",0,1,0,0,1,0,0,1,0,0,0,0,0,1,1,0,0,0,0,0,1,1,0,0,1,0
"Blue Ridge Produce Company",1,"Elkwood","VA","http://blueridgeproduce.net","aggregator; distributor",0,1,0,0,"B-corp",0,1,0,0,1,0,0,0,0,0,0,1,0,1,0,0,1,0,0,0,1,0,0,0,1,0
"Local Food Hub",1,"Charlottesville","VA","http://localfoodhub.org","Farm to business/institution model; distribution; educational farm",0,1,0,0,"non-profit",0,0,1,0,1,1,1,1,0,1,1,1,1,0,1,0,1,0,0,1,0,0,0,0,0,0
"EcoFriendly Foods",1,"Moneta","VA","http://ecofriendly.com/",".",0,1,0,0,"LLC",0,1,0,0,0,0,1,0,0,0,0,0,0,1,1,0,0,1,1,0,0,0,0,0,0,0
"Shenandoah Food",1,"Rockbridge Baths","VA","http://www.shenandoahfood.com/",".",0,1,0,0,,0,0,1,0,1,1,1,1,0,1,1,0,1,1,0,0,0,0,0,0,0,0,0,0,0,0
"Intervale Center",1,"Burlington","VT","http://www.intervale.org/",".",0,1,0,1,".",0,0,1,0,1,1,1,1,1,1,1,1,0,1,1,0,1,1,1,1,1,0,0,1,1,1
"Farmers to You",1,"Calais ","VT","http://farmerstoyou.com/",".",0,1,0,1,"LLC",0,1,0,0,1,1,1,1,1,1,1,1,0,1,1,0,0,0,0,0,0,0,0,0,1,0
"Green Mountain Farm Direct",1,"Newport","VT","http://www.greenmountainfarmdirect.org/",".",0,1,0,1,".",0,0,1,0,1,1,1,1,0,1,0,1,1,1,0,0,0,0,0,0,0,0,0,0,0,0
"Black River Produce",1,"North Springfield","VT","http://www.blackriverproduce.com","wholesaler",0,1,0,1,"private",0,1,0,0,1,1,1,0,1,1,0,0,0,1,0,0,0,0,0,0,0,0,0,0,0,0
"Deep Root Organic Cooperative",1,"Johnson","VT","http://deeprootorganic.coop/deeproot/",".",0,0,1,0,"cooperative",0,0,1,0,1,0,0,0,0,0,0,0,0,1,1,0,0,0,0,0,0,0,0,0,1,0
"Saint Johnsbury Local Food Alliance",1,"St. Johnsbury","VT","http://www.stjalfa.org/",".",0,1,0,0,".",0,0,1,0,1,0,1,0,1,0,0,,0,1,1,0,0,0,0,1,1,0,1,0,0,1
"Mad River Food Hub",1,"Waitsfield ","VT","http://madriverfoodhub.com/",".",0,1,0,0,".",0,0,1,0,1,1,1,1,1,1,1,1,0,1,1,0,0,1,1,0,0,0,0,0,1,0
"Food Works at Two Rivers - Farm-to-Table Program",1,"Montpelier","VT","http://www.foodworksvermont.org/",".",0,1,0,0,".",0,0,0,1,1,1,1,1,0,1,1,0,1,1,1,0,0,0,0,0,0,0,0,0,1,0
"Windham Food and Farm Network",1,"Brattleboro","VT","https://harvesttomarket.com/farmers-market/Windham-Farm-and-Food-Network",".",0,1,0,0,".",0,0,1,0,1,1,1,1,0,1,1,0,1,1,0,0,0,0,0,0,0,0,1,0,0,0
"Vermont Quality Meats",1,"Rutland","VT","http://www.vtqualitymeats.com/",".",0,1,0,0,".",0,1,0,0,0,1,1,0,0,0,0,0,1,0,0,0,0,1,1,0,0,0,0,0,0,0
"Screamin' Ridge Farm",1,"Montpelier","VT","http://www.screaminridgefarm.com/",".",1,0,0,0,".",0,0,1,0,1,1,1,1,0,1,0,0,0,1,1,0,1,1,0,0,0,1,0,0,0,0
"Okanogan Producers Marketing Association",1,"Okanogan","WA","http://okanoganproducers.org/",".",1,0,1,1,"cooperative",0,0,1,0,1,0,0,1,0,0,0,0,0,1,1,0,0,0,0,0,0,0,0,0,1,0
"Full Circle Farm",1,"Carnation","WA","http://www.fullcircle.com/","multi-farm direct-to-consumer business chains",0,1,0,1,".",0,1,0,0,1,1,1,1,1,1,1,1,0,1,1,0,0,0,0,0,0,0,0,1,1,1
"Northwest Farm Fresh",1,"Chewelah","WA","N/A",".",0,1,0,1,".",0,0,1,0,1,1,1,1,0,1,1,0,1,1,0,0,0,0,0,0,0,0,0,0,1,0
"Acme Farms and Kitchen",1,"Acme","WA","http://www.acmefarmsandkitchen.com","box scheme",0,0,0,1,".",0,1,0,0,1,1,1,1,1,1,0,0,0,1,0,0,1,0,0,0,0,0,0,0,0,1
"Seattle Tilth",1,"Seattle","WA","http://www.seattletilth.org/",".",1,1,0,0,"non-profit",0,0,1,0,1,1,1,1,0,1,1,0,0,1,1,0,1,1,0,1,0,0,0,0,1,0
"21 Acres Center for Local Food and Sustainable Living Food Hub",1,"Woodinville","WA","http://www.21acres.org/farm-to-table/regional-food-hub-at-21-acres","food hub, aggregation, distribution",0,1,0,0,"non-profit",0,0,1,0,1,0,0,0,0,0,0,0,0,1,1,0,0,0,0,0,0,0,0,0,1,0
"Shepard's Grain",1,"Spokane","WA","http://www.shepherdsgrain.com/","multi-farm direct-to-wholesale food business chains",0,1,0,0,".",0,1,0,0,0,0,0,0,0,1,0,0,0,0,1,0,0,0,0,0,0,0,0,1,0,0
"Viva Farms",1,"Mt. Vernon","WA","http://www.vivafarms.org/",".",0,1,0,0,".",0,0,1,0,1,0,0,0,0,0,0,0,0,1,1,0,0,0,0,0,1,0,0,0,0,0
"Growing Washington",1,"Bellingham","WA","http://www.growingwashington.org/",".",1,0,0,0,".",0,0,1,0,1,0,0,1,1,0,0,0,0,1,1,0,0,0,0,0,0,0,0,0,1,0
"North Sound Food Hub",1,"Mt. Vernon","WA","N/A",".",,,,,".",,,,,,,,,,,,,,,,,,,,,,,,,,
"Pudget Sound Food Hub",1,,"WA",,,,,,,,,,,,,,,,,,,,,,,,,,,,,,,,,
"Driftless Co-Option",1,"Viroqua","WI","https://foodclub.org/driftless_cooption/login",".",0,1,1,1,".",0,0,1,0,1,1,1,1,1,1,1,1,0,1,1,0,1,1,1,0,0,0,0,0,1,0
"Auburndale Food Cooperative",1,"Auburndale","WI","http://localfoodmarketplace.com/auburndale/Default.aspx","local grocery; food co-op; online CSA",1,0,1,1,"cooperative",0,0,1,0,1,1,1,0,0,1,0,0,1,1,0,0,0,0,0,0,0,0,0,0,1,1
"Appleton Food Hub",1,"Appleton","WI","https://appleton.localorbit.com/users/sign_in","online wholesaler marketplace",0,1,0,1,"non-profit",0,0,1,0,1,1,1,0,0,1,0,0,0,1,0,0,0,0,0,1,0,1,0,0,0,0
"Good Earth Farms",1,"Milladore ","WI","http://www.goodearthfarms.com/","multi-farm direct-to-consumer business chains",0,0,0,1,"LLC",1,0,0,0,0,0,1,0,0,0,0,0,0,0,1,0,0,0,0,0,0,0,0,0,1,0
"Fifth Season Cooperative",1,"Viroqua","WI","http://www.fifthseasoncoop.com","aggregator; wholesale distributor; farm-to-institution",0,1,1,0,"multi-stakeholder cooperative (producers, producer groups, processors, distributors, buyers and co-op workers)",0,1,0,0,1,1,1,1,0,1,1,1,0,1,1,0,0,1,1,0,1,0,0,0,1,0
"Cooperative Regions of Organic Producer Pools (CROPP) aka Organic Valley and Organic Prairie",1,"Westby","WI","https://www.farmers.coop/about-us/","value-added food production",0,1,1,0,"cooperative",1,0,0,0,1,1,1,1,0,0,0,0,0,1,1,1,0,1,1,0,0,0,0,0,1,0
"Wisconsin Food Hub Cooperative",1,"Madison","WI","http://wifoodhub.com","aggregator; wholesale distributor",0,1,1,0,"multi-stakeholder cooperative (producers, founders, organizational partners, and community supporters)",0,0,1,0,1,1,1,0,0,1,1,0,0,1,0,0,0,0,0,0,0,1,0,0,0,0
"Bayfield Regional Food Producers Coop",1,"Washburn","WI","http://bayfieldfoods.org","CSA; wholesaler; distributor; producers cooperative",1,0,1,0,"member cooperative",0,0,1,0,1,1,1,1,1,0,1,0,0,1,0,0,0,0,0,0,0,0,0,0,0,0
"Chequamegon Food Co-op",1,"Ashland","WI","http://chequamegonfoodcoop.com/",".",0,0,1,0,"food cooperative",0,0,1,0,1,1,1,1,0,1,1,1,1,1,0,0,0,0,0,0,0,0,0,0,1,0
"Neesvig's, Inc",1,"Windsor","WI","http://neesvigs.co/",".",0,1,0,0,".",0,1,0,0,0,1,1,0,1,0,0,0,0,0,1,0,0,0,0,0,0,0,0,1,0,0
"Parrfection Produce",1,"Albany","WI","http://parrfectionproduce.com/",".",0,1,0,0,".",0,0,1,0,1,0,0,0,0,0,0,0,0,1,0,0,0,0,0,0,0,0,0,0,0,0
"Wisconsin Home Harvest",1,"Reedsburg","WI","http://www.neuerthwormfarm.com/",".",1,0,0,0,".",0,0,1,0,1,0,0,1,0,0,1,0,0,1,1,0,0,0,0,0,0,0,0,0,0,0
"Monroe Farm Market Cooperative",1,"Union","WV","https://www.localfoodmarketplace.com/monroe/",".",0,0,1,1,".",0,0,1,0,1,0,1,1,0,1,0,1,1,1,1,0,0,0,0,0,0,1,0,0,0,0
"Fish Hawk Acres",1,"Rock Cave","WV","http://www.wvfarm2u.org/On-the-Farm/Fish-Hawk-Acres.aspx",".",0,1,0,0,".",0,0,1,0,1,1,1,1,0,1,1,1,1,1,0,0,1,0,0,0,1,1,0,0,0,0
"High Plains Food Coop",1,"Denver","CO","http://www.highplainsfood.org","retail exchange; aggregator; delivery",0,0,1,1,"producer-consumer cooperative",,,,1,1,,0,1,0,1,,,1,1,1,,,,,,,,,,,
,,,,,,,,,,,,,,,,,,,,,,,,,,,,,,,,,,,,
"Great Basin Community Food Cooperative/Distributors of Regional and Organic Produce and Products",1,"Reno","NV","http://www.greatbasinfood.coop/",".",,,,,".",,,,,,,,,,,,,,,,,,,,,,,,,,
"Local Roots Market & Caf√© (Wooster Local Foods Cooperative)",1,"Wooster","OH","http://localrootswooster.com/",".",,1,0,0,"cooperative",0,0,0,1,1,1,1,1,0,1,1,,1,1,1,0,1,0,0,0,0,1,0,0,0,0
"Fennimore Produce Auction",,"Fennimore","WI","N/A",".",,,,,".",,,,,,,,,,,,,,,,,,,,,,,,,,
,,,,,,,,,,,,,,,,,,,,,,,,,,,,,,,,,,,,
"Definitely VBSC",,,,,,,,,,,,,,,,,,,,,,,,,,,,,,,,,,,,
"Farmers markets, which operate once or twice per seek",,,,,,,,,,,,,,,,,,,,,,,,,,,,,,,,,,,,
"Food cooperatives, retail outlets, or auctions",,,,,,,,,,,,,,,,,,,,,,,,,,,,,,,,,,,,
"Not enough information",,,,,,,,,,,,,,,,,,,,,,,,,,,,,,,,,,,,
"Definitely not VBSC",,,,,,,,,,,,,,,,,,,,,,,,,,,,,,,,,,,,
